COMMENT,ORIGINATOR,NORAD_CAT_ID,OBJECT_NAME,OBJECT_TYPE,CLASSIFICATION_TYPE,INTLDES,EPOCH,EPOCH_MICROSECONDS,MEAN_MOTION,ECCENTRICITY,INCLINATION,RA_OF_ASC_NODE,ARG_OF_PERICENTER,MEAN_ANOMALY,EPHEMERIS_TYPE,ELEMENT_SET_NO,REV_AT_EPOCH,BSTAR,MEAN_MOTION_DOT,MEAN_MOTION_DDOT,FILE,TLE_LINE0,TLE_LINE1,TLE_LINE2,OBJECT_ID,OBJECT_NUMBER,SEMIMAJOR_AXIS,PERIOD,APOGEE,PERIGEE,DECAYED
"GENERATED VIA SPACETRACK.ORG API","18 SPCS","48895","SPACEBEE-108","PAYLOAD","U","21059S","2021-07-25 08:09:03","828096","15.1210393","0.0010755","97.5182","334.7399","146.1037","214.0883","0","999","446","0.00010762","0.0000179","0","3082902","0 SPACEBEE-108","1 48895U 21059S   21206.33962764  .00001790  00000-0  10762-3 0  9998","2 48895  97.5182 334.7399 0010755 146.1037 214.0883 15.12103930  4461","2021-059S","48895","6907.922","95.232","537.216","522.357","0"
"GENERATED VIA SPACETRACK.ORG API","18 SPCS","48895","SPACEBEE-108","PAYLOAD","U","21059S","2021-07-25 08:09:03","828096","15.1210393","0.0010755","97.5182","334.7399","146.1037","214.0883","0","999","446","0.00010762","0.0000179","0","3082986","0 SPACEBEE-108","1 48895U 21059S   21206.33962764  .00001790  00000-0  10762-3 0  9998","2 48895  97.5182 334.7399 0010755 146.1037 214.0883 15.12103930  4461","2021-059S","48895","6907.922","95.232","537.216","522.357","0"
"GENERATED VIA SPACETRACK.ORG API","18 SPCS","48895","SPACEBEE-108","PAYLOAD","U","21059S","2021-07-25 14:30:13","876992","15.12105193","0.001078","97.5183","335.0005","145.2821","214.9115","0","999","450","0.00010993","0.0000183","0","3083115","0 SPACEBEE-108","1 48895U 21059S   21206.60432728  .00001830  00000-0  10993-3 0  9991","2 48895  97.5183 335.0005 0010780 145.2821 214.9115 15.12105193  4504","2021-059S","48895","6907.918","95.231","537.230","522.336","0"
"GENERATED VIA SPACETRACK.ORG API","18 SPCS","48895","SPACEBEE-108","PAYLOAD","U","21059S","2021-07-26 07:58:26","486400","15.12107444","0.0010834","97.5184","335.717","142.9859","217.2121","0","999","461","0.0001047","0.0000174","0","3083474","0 SPACEBEE-108","1 48895U 21059S   21207.33225100  .00001740  00000-0  10470-3 0  9996","2 48895  97.5184 335.7170 0010834 142.9859 217.2121 15.12107444  4616","2021-059S","48895","6907.911","95.231","537.260","522.292","0"
"GENERATED VIA SPACETRACK.ORG API","18 SPCS","48895","SPACEBEE-108","PAYLOAD","U","21059S","2021-07-26 19:05:29","256","15.12108907","0.0010874","97.5185","336.173","141.5431","218.6576","0","999","468","0.00010208","0.00001695","0","3083551","0 SPACEBEE-108","1 48895U 21059S   21207.79547454  .00001695  00000-0  10208-3 0  9993","2 48895  97.5185 336.1730 0010874 141.5431 218.6576 15.12108907  4680","2021-059S","48895","6907.907","95.231","537.283","522.260","0"
"GENERATED VIA SPACETRACK.ORG API","18 SPCS","48895","SPACEBEE-108","PAYLOAD","U","21059S","2021-07-27 07:47:48","984864","15.12110712","0.0010916","97.5186","336.6942","139.8298","220.3741","0","999","476","0.00010216","0.00001697","0","3084099","0 SPACEBEE-108","1 48895U 21059S   21208.32487251  .00001697  00000-0  10216-3 0  9992","2 48895  97.5186 336.6942 0010916 139.8298 220.3741 15.12110712  4769","2021-059S","48895","6907.901","95.231","537.307","522.225","0"
"GENERATED VIA SPACETRACK.ORG API","18 SPCS","48895","SPACEBEE-108","PAYLOAD","U","21059S","2021-07-27 20:30:08","898624","15.12112336","0.0010957","97.5187","337.2153","138.183","222.024","0","999","484","0.000099924","0.00001658","0","3084335","0 SPACEBEE-108","1 48895U 21059S   21208.85426966  .00001658  00000-0  99924-4 0  9997","2 48895  97.5187 337.2153 0010957 138.1830 222.0240 15.12112336  4846","2021-059S","48895","6907.896","95.231","537.330","522.192","0"
"GENERATED VIA SPACETRACK.ORG API","18 SPCS","48895","SPACEBEE-108","PAYLOAD","U","21059S","2021-07-27 22:05:26","384064","15.12112563","0.0010962","97.5187","337.2804","137.9712","222.2362","0","999","485","0.00010002","0.0000166","0","3084441","0 SPACEBEE-108","1 48895U 21059S   21208.92044426  .00001660  00000-0  10002-3 0  9994","2 48895  97.5187 337.2804 0010962 137.9712 222.2362 15.12112563  4851","2021-059S","48895","6907.896","95.231","537.333","522.188","0"
"GENERATED VIA SPACETRACK.ORG API","18 SPCS","48895","SPACEBEE-108","PAYLOAD","U","21059S","2021-07-28 07:37:11","248320","15.12114362","0.0010984","97.5187","337.6713","136.7929","223.4165","0","999","491","0.00010397","0.00001728","0","3084730","0 SPACEBEE-108","1 48895U 21059S   21209.31749130  .00001728  00000-0  10397-3 0  9994","2 48895  97.5187 337.6713 0010984 136.7929 223.4165 15.12114362  4915","2021-059S","48895","6907.890","95.231","537.343","522.167","0"
"GENERATED VIA SPACETRACK.ORG API","18 SPCS","48895","SPACEBEE-108","PAYLOAD","U","21059S","2021-07-28 20:19:31","59264","15.12115916","0.0011025","97.5188","338.1924","135.1607","225.0516","0","999","499","0.00010164","0.00001688","0","3085005","0 SPACEBEE-108","1 48895U 21059S   21209.84688726  .00001688  00000-0  10164-3 0  9992","2 48895  97.5188 338.1924 0011025 135.1607 225.0516 15.12115916  4991","2021-059S","48895","6907.885","95.231","537.366","522.134","0"
"GENERATED VIA SPACETRACK.ORG API","18 SPCS","48895","SPACEBEE-108","PAYLOAD","U","21059S","2021-07-29 07:26:33","338976","15.12117831","0.0011046","97.5187","338.6485","133.734","226.4807","0","999","506","0.00010571","0.00001758","0","3085389","0 SPACEBEE-108","1 48895U 21059S   21210.31010809  .00001758  00000-0  10571-3 0  9997","2 48895  97.5187 338.6485 0011046 133.7340 226.4807 15.12117831  5063","2021-059S","48895","6907.879","95.231","537.375","522.114","0"
"GENERATED VIA SPACETRACK.ORG API","18 SPCS","48895","SPACEBEE-108","PAYLOAD","U","21059S","2021-07-29 07:26:33","338976","15.12117831","0.0011046","97.5187","338.6485","133.734","226.4807","0","999","506","0.00010571","0.00001758","0","3085488","0 SPACEBEE-108","1 48895U 21059S   21210.31010809  .00001758  00000-0  10571-3 0  9997","2 48895  97.5187 338.6485 0011046 133.7340 226.4807 15.12117831  5063","2021-059S","48895","6907.879","95.231","537.375","522.114","0"
"GENERATED VIA SPACETRACK.ORG API","18 SPCS","48895","SPACEBEE-108","PAYLOAD","U","21059S","2021-07-29 20:08:53","7360","15.1211995","0.0011081","97.5188","339.1697","132.1136","228.1038","0","999","514","0.00010826","0.00001802","0","3085670","0 SPACEBEE-108","1 48895U 21059S   21210.83950240  .00001802  00000-0  10826-3 0  9999","2 48895  97.5188 339.1697 0011081 132.1136 228.1038 15.12119950  5148","2021-059S","48895","6907.873","95.231","537.393","522.083","0"
"GENERATED VIA SPACETRACK.ORG API","18 SPCS","48895","SPACEBEE-108","PAYLOAD","U","21059S","2021-07-30 07:15:55","182528","15.12121381","0.00111","97.5188","339.6257","130.7245","229.4951","0","999","521","0.00010656","0.00001773","0","3085948","0 SPACEBEE-108","1 48895U 21059S   21211.30272202  .00001773  00000-0  10656-3 0  9995","2 48895  97.5188 339.6257 0011100 130.7245 229.4951 15.12121381  5219","2021-059S","48895","6907.869","95.230","537.401","522.066","0"
"GENERATED VIA SPACETRACK.ORG API","18 SPCS","48895","SPACEBEE-108","PAYLOAD","U","21059S","2021-07-30 15:12:22","416192","15.12122665","0.0011119","97.5188","339.9514","129.737","230.4842","0","999","526","0.00010777","0.00001794","0","3086101","0 SPACEBEE-108","1 48895U 21059S   21211.63359278  .00001794  00000-0  10777-3 0  9997","2 48895  97.5188 339.9514 0011119 129.7370 230.4842 15.12122665  5267","2021-059S","48895","6907.865","95.230","537.411","522.049","0"
"GENERATED VIA SPACETRACK.ORG API","18 SPCS","48895","SPACEBEE-108","PAYLOAD","U","21059S","2021-07-30 19:58:14","740320","15.12123474","0.0011129","97.5188","340.1469","129.1463","231.0758","0","999","529","0.0001084","0.00001805","0","3086384","0 SPACEBEE-108","1 48895U 21059S   21211.83211505  .00001805  00000-0  10840-3 0  9993","2 48895  97.5188 340.1469 0011129 129.1463 231.0758 15.12123474  5293","2021-059S","48895","6907.862","95.230","537.415","522.040","0"
"GENERATED VIA SPACETRACK.ORG API","18 SPCS","48895","SPACEBEE-108","PAYLOAD","U","21059S","2021-07-31 07:05:16","823040","15.12124749","0.0011142","97.5188","340.6029","127.7734","232.4507","0","999","536","0.00010469","0.00001741","0","3086827","0 SPACEBEE-108","1 48895U 21059S   21212.29533360  .00001741  00000-0  10469-3 0  9996","2 48895  97.5188 340.6029 0011142 127.7734 232.4507 15.12124749  5361","2021-059S","48895","6907.858","95.230","537.420","522.027","0"
"GENERATED VIA SPACETRACK.ORG API","18 SPCS","48895","SPACEBEE-108","PAYLOAD","U","21059S","2021-07-31 19:47:36","281472","15.12126197","0.0011165","97.5188","341.124","126.2137","234.0127","0","999","544","0.000099275","0.00001648","0","3087042","0 SPACEBEE-108","1 48895U 21059S   21212.82472548  .00001648  00000-0  99275-4 0  9994","2 48895  97.5188 341.1240 0011165 126.2137 234.0127 15.12126197  5442","2021-059S","48895","6907.854","95.230","537.432","522.006","0"
"GENERATED VIA SPACETRACK.ORG API","18 SPCS","48895","SPACEBEE-108","PAYLOAD","U","21059S","2021-07-31 19:47:36","281472","15.12126197","0.0011165","97.5188","341.124","126.2137","234.0127","0","999","544","0.000099275","0.00001648","0","3087123","0 SPACEBEE-108","1 48895U 21059S   21212.82472548  .00001648  00000-0  99275-4 0  9994","2 48895  97.5188 341.1240 0011165 126.2137 234.0127 15.12126197  5442","2021-059S","48895","6907.854","95.230","537.432","522.006","0"
"GENERATED VIA SPACETRACK.ORG API","18 SPCS","48895","SPACEBEE-108","PAYLOAD","U","21059S","2021-08-01 06:54:38","281248","15.12126537","0.0011181","97.5188","341.5801","124.8468","235.3816","0","999","551","0.000085336","0.00001407","0","3087492","0 SPACEBEE-108","1 48895U 21059S   21213.28794307  .00001407  00000-0  85336-4 0  9991","2 48895  97.5188 341.5801 0011181 124.8468 235.3816 15.12126537  5513","2021-059S","48895","6907.853","95.230","537.442","521.994","0"
